[Satellite]
VERSION=1.1
NAME=INTELSAT 21 (IS-21)
NICKNAME=INTELSAT 21 (IS-21)
TLE1=1 38749U 12045A   15053.22195215 -.00000310  00000-0  00000+0 0  9998
TLE2=2 38749   0.0145  86.1806 0002144 245.4704 202.0205  1.00271787  9204
